[
    {
        "Altitude(m)": 617719.7860764756,
        "Argument of Periapsis(deg)": 0.0,
        "Eccentricity": 0.0,
        "Inclination(deg)": 60.0,
        "Latitude(deg)": -41.10268107463276,
        "Longitude(deg)": -124.90542855585504,
        "Mean Anomaly(deg)": 229.09089999999998,
        "RAAN(deg)": 125.00000000000001,
        "Satellite Name": "Test1 564",
        "Satellite Number": 564,
        "Semi-Major Axis(m)": 6980739.136638005,
        "Time(s)": 0
    },
    {
        "Altitude(m)": 617911.3222971396,
        "Argument of Periapsis(deg)": 0.00010418945913296404,
        "Eccentricity": 0.0,
        "Inclination(deg)": 60.0,
        "Latitude(deg)": -41.56587381263346,
        "Longitude(deg)": -124.40102292901682,
        "Mean Anomaly(deg)": 229.71100614546188,
        "RAAN(deg)": 124.99957995086027,
        "Satellite Name": "Test1 564",
        "Satellite Number": 564,
        "Semi-Major Axis(m)": 6980739.136638005,
        "Time(s)": 10
    }
]